STARLINK-31987          
1 60017U 24111B   26068.25673428 -.00000531  00000+0 -58246-5 0  9992
2 60017  53.1610  77.8920 0001166  79.9762 280.1371 15.30187806 98928
KUIPER-00208            
1 67775U 26030M   26068.67231509  .00043852  00000+0  13883-2 0  9994
2 67775  51.8846 219.6993 0015525  57.3146 302.9333 15.32208734  5080
